IRIDIUM 921             
1 24873U 97034E   24312.23250651  .00140269  00000+0  17331-2 0  9991
2 24873  86.3755 216.4401 0008048  75.5316 284.6841 15.59639363497570
IRIDIUM 26              
1 24903U 97043A   24312.47070460  .00001815  00000+0  60906-3 0  9999
2 24903  86.4016 203.6439 0002371  83.5481 276.5986 14.36774415424908
IRIDIUM 22              
1 24907U 97043E   24312.77776212  .00001580  00000+0  54155-3 0  9992
2 24907  86.4019 206.8618 0002144  80.7567 279.3871 14.35629497425005
DUMMY MASS 1            
1 24925U 97048A   24312.85784550  .00001941  00000+0  21586-3 0  9993
2 24925  86.3364 237.5642 0005755 189.1487 170.9634 14.86596039472489
DUMMY MASS 2            
1 24926U 97048B   24312.91794737  .00001891  00000+0  21157-3 0  9997
2 24926  86.3363 239.1040 0006006 205.5275 154.5654 14.86350581472038
IRIDIUM 29              
1 24944U 97051A   24312.87509249  .00001939  00000+0  66016-3 0  9994
2 24944  86.3975 236.6276 0002119  83.9177 276.2261 14.36085584421505
IRIDIUM 33              
1 24946U 97051C   24312.76188621  .00001402  00000+0  48921-3 0  9991
2 24946  86.3895 235.9220 0010127  81.5677 278.6666 14.34632318420994
IRIDIUM 28              
1 24948U 97051E   24312.85339000  .00001889  00000+0  63083-3 0  9997
2 24948  86.3984 234.2785 0002756  84.7601 275.3911 14.37034233422055
